{"type": "FeatureCollection", "features": [ {"type": "Feature", "properties": {"norad_id": 66978, "name": "STARLINK-35787", "group": "last-30-days", "lat": 33.32221116044921, "lon": 165.5383499334828, "alt_km": 317.6328550731241, "timestamp": "2025-12-20T07:33:49.516270+00:00", "meta": {"OBJECT_NAME": "STARLINK-35787", "OBJECT_ID": "2025-288V", "EPOCH": "2025-12-19T16:11:39.028128", "MEAN_MOTION": 15.83197985, "ECCENTRICITY": 0.00040667, "INCLINATION": 43.0021, "RA_OF_ASC_NODE": 124.6014, "ARG_OF_PERICENTER": 327.0296, "MEAN_ANOMALY": 33.0322, "EPHEMERIS_TYPE": 0, "CLASSIFICATION_TYPE": "U", "NORAD_CAT_ID": 66978, "ELEMENT_SET_NO": 999, "REV_AT_EPOCH": 294, "BSTAR": -0.0025664783, "MEAN_MOTION_DOT": -0.00538496, "MEAN_MOTION_DDOT": 0}, "tle": {"line1": "1 66978U 25288V   25353.67475727 -.00538496  00000+0 -25665-2 0  9996", "line2": "2 66978  43.0021 124.6014 0004066 327.0296  33.0322 15.83197985  2945"}}, "geometry": {"type": "Point", "coordinates": [165.5383499334828, 33.32221116044921]}}, {"type": "Feature", "properties": {"norad_id": 66979, "name": "STARLINK-36107", "group": "last-30-days", "lat": 34.2588420663898, "lon": 167.62513424309788, "alt_km": 319.2297857521735, "timestamp": "2025-12-20T07:33:49.516281+00:00", "meta": {"OBJECT_NAME": "STARLINK-36107", "OBJECT_ID": "2025-288W", "EPOCH": "2025-12-19T19:12:44.359488", "MEAN_MOTION": 15.8279725, "ECCENTRICITY": 0.00026723, "INCLINATION": 43.0021, "RA_OF_ASC_NODE": 123.8231, "ARG_OF_PERICENTER": 296.8538, "MEAN_ANOMALY": 63.2061, "EPHEMERIS_TYPE": 0, "CLASSIFICATION_TYPE": "U", "NORAD_CAT_ID": 66979, "ELEMENT_SET_NO": 999, "REV_AT_EPOCH": 296, "BSTAR": -0.0022527164, "MEAN_MOTION_DOT": -0.00467261, "MEAN_MOTION_DDOT": 0}, "tle": {"line1": "1 66979U 25288W   25353.80051342 -.00467261  00000+0 -22527-2 0  9990", "line2": "2 66979  43.0021 123.8231 0002672 296.8538  63.2061 15.82797250  2968"}}, "geometry": {"type": "Point", "coordinates": [167.62513424309788, 34.2588420663898]}}, {"type": "Feature", "properties": {"norad_id": 66980, "name": "STARLINK-36086", "group": "last-30-days", "lat": 36.76231743441449, "lon": 173.94157555507627, "alt_km": 313.82524069577175, "timestamp": "2025-12-20T07:33:49.516291+00:00", "meta": {"OBJECT_NAME": "STARLINK-36086", "OBJECT_ID": "2025-288X", "EPOCH": "2025-12-19T16:10:18.958656", "MEAN_MOTION": 15.83758692, "ECCENTRICITY": 0.00032396, "INCLINATION": 43.0018, "RA_OF_ASC_NODE": 124.5942, "ARG_OF_PERICENTER": 311.6941, "MEAN_ANOMALY": 48.3654, "EPHEMERIS_TYPE": 0, "CLASSIFICATION_TYPE": "U", "NORAD_CAT_ID": 66980, "ELEMENT_SET_NO": 999, "REV_AT_EPOCH": 294, "BSTAR": 0.00083637831, "MEAN_MOTION_DOT": 0.00195036, "MEAN_MOTION_DDOT": 0}, "tle": {"line1": "1 66980U 25288X   25353.67383054  .00195036  00000+0  83638-3 0  9992", "line2": "2 66980  43.0018 124.5942 0003239 311.6941  48.3654 15.83758692  2945"}}, "geometry": {"type": "Point", "coordinates": [173.94157555507627, 36.76231743441449]}}, {"type": "Feature", "properties": {"norad_id": 66981, "name": "STARLINK-36142", "group": "last-30-days", "lat": 37.795720046461376, "lon": 176.9761237778914, "alt_km": 313.9376979784247, "timestamp": "2025-12-20T07:33:49.516301+00:00", "meta": {"OBJECT_NAME": "STARLINK-36142", "OBJECT_ID": "2025-288Y", "EPOCH": "2025-12-19T16:09:44.787456", "MEAN_MOTION": 15.83850846, "ECCENTRICITY": 0.0002991, "INCLINATION": 43.0011, "RA_OF_ASC_NODE": 124.5902, "ARG_OF_PERICENTER": 276.7165, "MEAN_ANOMALY": 83.3367, "EPHEMERIS_TYPE": 0, "CLASSIFICATION_TYPE": "U", "NORAD_CAT_ID": 66981, "ELEMENT_SET_NO": 999, "REV_AT_EPOCH": 294, "BSTAR": 0.0013488684, "MEAN_MOTION_DOT": 0.00320882, "MEAN_MOTION_DDOT": 0}, "tle": {"line1": "1 66981U 25288Y   25353.67343504  .00320882  00000+0  13489-2 0  9994", "line2": "2 66981  43.0011 124.5902 0002991 276.7165  83.3367 15.83850846  2942"}}, "geometry": {"type": "Point", "coordinates": [176.9761237778914, 37.795720046461376]}}, {"type": "Feature", "properties": {"norad_id": 66982, "name": "STARLINK-36113", "group": "last-30-days", "lat": 40.82319650384689, "lon": -171.41189237415276, "alt_km": 307.12064891555383, "timestamp": "2025-12-20T07:33:49.516313+00:00", "meta": {"OBJECT_NAME": "STARLINK-36113", "OBJECT_ID": "2025-288Z", "EPOCH": "2025-12-19T16:08:47.500800", "MEAN_MOTION": 15.85511294, "ECCENTRICITY": 0.00142793, "INCLINATION": 43.0036, "RA_OF_ASC_NODE": 124.5853, "ARG_OF_PERICENTER": 310.466, "MEAN_ANOMALY": 49.4968, "EPHEMERIS_TYPE": 0, "CLASSIFICATION_TYPE": "U", "NORAD_CAT_ID": 66982, "ELEMENT_SET_NO": 999, "REV_AT_EPOCH": 294, "BSTAR": 0.0059196563, "MEAN_MOTION_DOT": 0.01699797, "MEAN_MOTION_DDOT": 0}, "tle": {"line1": "1 66982U 25288Z   25353.67277200  .01699797  00000+0  59197-2 0  9995", "line2": "2 66982  43.0036 124.5853 0014279 310.4660  49.4968 15.85511294  2946"}}, "geometry": {"type": "Point", "coordinates": [-171.41189237415276, 40.82319650384689]}}, {"type": "Feature", "properties": {"norad_id": 66983, "name": "STARLINK-36145", "group": "last-30-days", "lat": 39.15085041070696, "lon": -178.47746341490807, "alt_km": 318.32859542679853, "timestamp": "2025-12-20T07:33:49.516323+00:00", "meta": {"OBJECT_NAME": "STARLINK-36145", "OBJECT_ID": "2025-288AA", "EPOCH": "2025-12-19T14:37:17.427072", "MEAN_MOTION": 15.83382075, "ECCENTRICITY": 0.0002564, "INCLINATION": 43.0014, "RA_OF_ASC_NODE": 124.9686, "ARG_OF_PERICENTER": 286.0273, "MEAN_ANOMALY": 74.0317, "EPHEMERIS_TYPE": 0, "CLASSIFICATION_TYPE": "U", "NORAD_CAT_ID": 66983, "ELEMENT_SET_NO": 999, "REV_AT_EPOCH": 293, "BSTAR": -0.0027173, "MEAN_MOTION_DOT": -0.00572524, "MEAN_MOTION_DDOT": 0}, "tle": {"line1": "1 66983U 25288AA  25353.60922948 -.00572524  00000+0 -27173-2 0  9993", "line2": "2 66983  43.0014 124.9686 0002564 286.0273  74.0317 15.83382075  2935"}}, "geometry": {"type": "Point", "coordinates": [-178.47746341490807, 39.15085041070696]}}, {"type": "Feature", "properties": {"norad_id": 66984, "name": "STARLINK-35591", "group": "last-30-days", "lat": 42.52298454168454, "lon": -159.63702478959482, "alt_km": 295.74734871900455, "timestamp": "2025-12-20T07:33:49.516333+00:00", "meta": {"OBJECT_NAME": "STARLINK-35591", "OBJECT_ID": "2025-288AB", "EPOCH": "2025-12-19T16:08:11.751072", "MEAN_MOTION": 15.86480094, "ECCENTRICITY": 0.00146183, "INCLINATION": 43.0024, "RA_OF_ASC_NODE": 124.5818, "ARG_OF_PERICENTER": 276.7753, "MEAN_ANOMALY": 83.1457, "EPHEMERIS_TYPE": 0, "CLASSIFICATION_TYPE": "U", "NORAD_CAT_ID": 66984, "ELEMENT_SET_NO": 999, "REV_AT_EPOCH": 294, "BSTAR": 0.015652151, "MEAN_MOTION_DOT": 0.04889545, "MEAN_MOTION_DDOT": 0}, "tle": {"line1": "1 66984U 25288AB  25353.67235823  .04889545  00000+0  15652-1 0  9994", "line2": "2 66984  43.0024 124.5818 0014618 276.7753  83.1457 15.86480094  2942"}}, "geometry": {"type": "Point", "coordinates": [-159.63702478959482, 42.52298454168454]}}, {"type": "Feature", "properties": {"norad_id": 66985, "name": "STARLINK-36103", "group": "last-30-days", "lat": 39.8022905194614, "lon": -175.97132041838813, "alt_km": 318.9475014510281, "timestamp": "2025-12-20T07:33:49.516357+00:00", "meta": {"OBJECT_NAME": "STARLINK-36103", "OBJECT_ID": "2025-288AC", "EPOCH": "2025-12-19T16:07:33.151872", "MEAN_MOTION": 15.83189138, "ECCENTRICITY": 0.00027786, "INCLINATION": 43.0015, "RA_OF_ASC_NODE": 124.5782, "ARG_OF_PERICENTER": 265.4698, "MEAN_ANOMALY": 94.5857, "EPHEMERIS_TYPE": 0, "CLASSIFICATION_TYPE": "U", "NORAD_CAT_ID": 66985, "ELEMENT_SET_NO": 999, "REV_AT_EPOCH": 294, "BSTAR": -0.002557199, "MEAN_MOTION_DOT": -0.00536142, "MEAN_MOTION_DDOT": 0}, "tle": {"line1": "1 66985U 25288AC  25353.67191148 -.00536142  00000+0 -25572-2 0  9999", "line2": "2 66985  43.0015 124.5782 0002778 265.4698  94.5857 15.83189138  2942"}}, "geometry": {"type": "Point", "coordinates": [-175.97132041838813, 39.8022905194614]}}, {"type": "Feature", "properties": {"norad_id": 66986, "name": "STARLINK-36135", "group": "last-30-days", "lat": 40.475710383865014, "lon": -173.06568272175033, "alt_km": 318.89145242640825, "timestamp": "2025-12-20T07:33:49.516370+00:00", "meta": {"OBJECT_NAME": "STARLINK-36135", "OBJECT_ID": "2025-288AD", "EPOCH": "2025-12-19T16:06:57.425472", "MEAN_MOTION": 15.83176247, "ECCENTRICITY": 0.00027523, "INCLINATION": 43.001, "RA_OF_ASC_NODE": 124.5737, "ARG_OF_PERICENTER": 266.3902, "MEAN_ANOMALY": 93.6656, "EPHEMERIS_TYPE": 0, "CLASSIFICATION_TYPE": "U", "NORAD_CAT_ID": 66986, "ELEMENT_SET_NO": 999, "REV_AT_EPOCH": 294, "BSTAR": -0.0025747897, "MEAN_MOTION_DOT": -0.00539297, "MEAN_MOTION_DDOT": 0}, "tle": {"line1": "1 66986U 25288AD  25353.67149798 -.00539297  00000+0 -25748-2 0  9993", "line2": "2 66986  43.0010 124.5737 0002752 266.3902  93.6656 15.83176247  2942"}}, "geometry": {"type": "Point", "coordinates": [-173.06568272175033, 40.475710383865014]}}, {"type": "Feature", "properties": {"norad_id": 66987, "name": "STARLINK-36147", "group": "last-30-days", "lat": 40.85846961243062, "lon": -171.22541120479912, "alt_km": 318.6020587916637, "timestamp": "2025-12-20T07:33:49.516380+00:00", "meta": {"OBJECT_NAME": "STARLINK-36147", "OBJECT_ID": "2025-288AE", "EPOCH": "2025-12-19T19:08:10.241664", "MEAN_MOTION": 15.82744408, "ECCENTRICITY": 0.0002722, "INCLINATION": 43.0015, "RA_OF_ASC_NODE": 123.7974, "ARG_OF_PERICENTER": 308.844, "MEAN_ANOMALY": 51.2189, "EPHEMERIS_TYPE": 0, "CLASSIFICATION_TYPE": "U", "NORAD_CAT_ID": 66987, "ELEMENT_SET_NO": 999, "REV_AT_EPOCH": 296, "BSTAR": -0.0023929178, "MEAN_MOTION_DOT": -0.00493607, "MEAN_MOTION_DDOT": 0}, "tle": {"line1": "1 66987U 25288AE  25353.79734076 -.00493607  00000+0 -23929-2 0  9999", "line2": "2 66987  43.0015 123.7974 0002722 308.8440  51.2189 15.82744408  2960"}}, "geometry": {"type": "Point", "coordinates": [-171.22541120479912, 40.85846961243062]}}]}